[
    {
        "Altitude(m)": 607911.0198301933,
        "Argument of Periapsis(deg)": 0.0,
        "Eccentricity": 0.0,
        "Inclination(deg)": 60.0,
        "Latitude(deg)": -14.293005077245933,
        "Longitude(deg)": -36.55732839747019,
        "Mean Anomaly(deg)": -163.6364,
        "RAAN(deg)": 235.0,
        "Satellite Name": "Test1 1046",
        "Satellite Number": 1046,
        "Semi-Major Axis(m)": 6980739.136638005,
        "Time(s)": 0
    },
    {
        "Altitude(m)": 608060.2537030996,
        "Argument of Periapsis(deg)": 0.00010418945913296404,
        "Eccentricity": 0.0,
        "Inclination(deg)": 60.0,
        "Latitude(deg)": -14.826665993372547,
        "Longitude(deg)": -36.26871793764397,
        "Mean Anomaly(deg)": -163.01629385453822,
        "RAAN(deg)": 234.99957995086027,
        "Satellite Name": "Test1 1046",
        "Satellite Number": 1046,
        "Semi-Major Axis(m)": 6980739.136638005,
        "Time(s)": 10
    }
]